{
    "links": {
        "self": "http://www.neowsapp.com/rest/v1/neo/3024682?api_key=iIulBulltgU6a56xZRHN4H3l9WmuAYTsLGpBGhQ2"
    },
    "id": "3024682",
    "neo_reference_id": "3024682",
    "name": "(1999 SE10)",
    "designation": "1999 SE10",
    "nasa_jpl_url": "http://ssd.jpl.nasa.gov/sbdb.cgi?sstr=3024682",
    "absolute_magnitude_h": 20.0,
    "estimated_diameter": {
        "kilometers": {
            "estimated_diameter_min": 0.2658,
            "estimated_diameter_max": 0.5943468684
        },
        "meters": {
            "estimated_diameter_min": 265.8,
            "estimated_diameter_max": 594.3468684194
        },
        "miles": {
            "estimated_diameter_min": 0.1651604118,
            "estimated_diameter_max": 0.369309908
        },
        "feet": {
            "estimated_diameter_min": 872.047272,
            "estimated_diameter_max": 1949.9569797852
        }
    },
    "is_potentially_hazardous_asteroid": false,
    "close_approach_data": [
        {
            "close_approach_date": "1976-10-22",
            "close_approach_date_full": "1976-Oct-22 01:07",
            "epoch_date_close_approach": 214794420000,
            "relative_velocity": {
                "kilometers_per_second": "5.8017483354",
                "kilometers_per_hour": "20886.2940073002",
                "miles_per_hour": "12977.9308513694"
            },
            "miss_distance": {
                "astronomical": "0.2394508046",
                "lunar": "93.1463629894",
                "kilometers": "35821330.337946202",
                "miles": "22258342.5389415076"
            },
            "orbiting_body": "Earth"
        },
        {
            "close_approach_date": "1999-10-25",
            "close_approach_date_full": "1999-Oct-25 00:57",
            "epoch_date_close_approach": 940813020000,
            "relative_velocity": {
                "kilometers_per_second": "6.3900309007",
                "kilometers_per_hour": "23004.1112424659",
                "miles_per_hour": "14293.8601217422"
            },
            "miss_distance": {
                "astronomical": "0.2479329483",
                "lunar": "96.4459168887",
                "kilometers": "37090240.968500121",
                "miles": "23046807.0431828298"
            },
            "orbiting_body": "Earth"
        },
        {
            "close_approach_date": "2022-10-25",
            "close_approach_date_full": "2022-Oct-25 10:25",
            "epoch_date_close_approach": 1666693500000,
            "relative_velocity": {
                "kilometers_per_second": "8.3511573032",
                "kilometers_per_hour": "30064.1662915851",
                "miles_per_hour": "18680.7037715685"
            },
            "miss_distance": {
                "astronomical": "0.3904530335",
                "lunar": "151.8862300315",
                "kilometers": "58410942.146638645",
                "miles": "36294876.434137501"
            },
            "orbiting_body": "Earth"
        },
        {
            "close_approach_date": "2105-06-17",
            "close_approach_date_full": "2105-Jun-17 21:05",
            "epoch_date_close_approach": 4274715900000,
            "relative_velocity": {
                "kilometers_per_second": "7.3761370775",
                "kilometers_per_hour": "26554.0934789369",
                "miles_per_hour": "16499.6810286206"
            },
            "miss_distance": {
                "astronomical": "0.0800345304",
                "lunar": "31.1334323256",
                "kilometers": "11972995.274290248",
                "miles": "7439674.2811635024"
            },
            "orbiting_body": "Mars"
        }
    ],
    "orbital_data": {
        "orbit_id": "11",
        "orbit_determination_date": "2017-04-06 09:17:21",
        "first_observation_date": "1999-09-30",
        "last_observation_date": "1999-11-15",
        "data_arc_in_days": 46,
        "observations_used": 84,
        "orbit_uncertainty": "6",
        "minimum_orbit_intersection": ".233347",
        "jupiter_tisserand_invariant": "2.845",
        "epoch_osculation": "2459000.5",
        "eccentricity": ".6186141369947297",
        "semi_major_axis": "3.215547561693501",
        "inclination": "6.882561957097142",
        "ascending_node_longitude": "40.43648006626444",
        "orbital_period": "2106.10894861352",
        "perihelion_distance": "1.226364381850968",
        "perihelion_argument": "349.3647839103701",
        "aphelion_distance": "5.204730741536033",
        "perihelion_time": "2459893.412801391608",
        "mean_anomaly": "207.3732288576082",
        "mean_motion": ".1709313282377879",
        "equinox": "J2000",
        "orbit_class": {
            "orbit_class_type": "AMO",
            "orbit_class_description": "Near-Earth asteroid orbits similar to that of 1221 Amor",
            "orbit_class_range": "1.017 AU < q (perihelion) < 1.3 AU"
        }
    },
    "is_sentry_object": false
}